{"fetched_at":"2026-03-30T06:02:59Z","count":15439,"tles":[{"name":"STARLINK-33663","line1":"1 63652U 25083U   26087.81198620  .00027834  00000+0  10165-2 0  9996","line2":"2 63652  42.9996 257.0110 0001670 271.0855  88.9805 15.27600503 52993","category":"Starlink"}]}